GPS BIIR-2  (PRN 13)    
1 24876U 97035A   24263.01096111  .00000046  00000+0  00000+0 0  9995
2 24876  55.6981 123.4629 0084288  54.1116 306.7709  2.00561099199191
GPS BIIR-4  (PRN 20)    
1 26360U 00025A   24263.49118622 -.00000054  00000+0  00000+0 0  9992
2 26360  54.7430  45.0433 0039159 217.0729 218.0373  2.00572005178524
GPS BIIR-5  (PRN 22)    
1 26407U 00040A   24263.35107976  .00000022  00000+0  00000+0 0  9990
2 26407  55.0333 240.4364 0142801 295.8102 237.1660  2.00561424177190
GPS BIIR-8  (PRN 16)    
1 27663U 03005A   24263.55186552  .00000023  00000+0  00000+0 0  9999
2 27663  55.0710 240.2395 0137895  47.7044  49.8449  2.00569338158567
GPS BIIR-9  (PRN 21)    
1 27704U 03010A   24261.64970612 -.00000083  00000+0  00000+0 0  9994
2 27704  55.0781 350.0611 0254609 329.7410  50.0527  2.00566168157327
GPS BIIR-11 (PRN 19)    
1 28190U 04009A   24263.29836427 -.00000026  00000+0  00000+0 0  9998
2 28190  55.3730 301.2776 0098895 152.9493 275.8076  2.00556343150192
GPS BIIR-13 (PRN 02)    
1 28474U 04045A   24261.23942618 -.00000081  00000+0  00000+0 0  9996
2 28474  55.4077 350.5278 0163698 294.6978 133.9234  2.00562026145630
GPS BIIRM-1 (PRN 17)    
1 28874U 05038A   24263.20629374 -.00000021  00000+0  00000+0 0  9997
2 28874  55.4186 298.7458 0137728 285.1325  99.2621  2.00549034139084
GPS BIIRM-2 (PRN 31)    
1 29486U 06042A   24263.54583791  .00000024  00000+0  00000+0 0  9994
2 29486  54.6766 176.5502 0105040  40.9082 129.8460  2.00550330131647
GPS BIIRM-3 (PRN 12)    
1 29601U 06052A   24263.22850105  .00000022  00000+0  00000+0 0  9993
2 29601  55.1044 239.2366 0084615  83.6277 277.3085  2.00572748130659
GPS BIIRM-4 (PRN 15)    
1 32260U 07047A   24263.53409969  .00000030  00000+0  00000+0 0  9994
2 32260  53.6572 106.3399 0158848  77.5109 284.3495  2.00559485124063
GPS BIIRM-5 (PRN 29)    
1 32384U 07062A   24263.59408228 -.00000025  00000+0  00000+0 0  9996
2 32384  55.5597 299.6063 0028230 157.3162  15.7353  2.00552501122765
GPS BIIRM-6 (PRN 07)    
1 32711U 08012A   24262.95128733  .00000023  00000+0  00000+0 0  9992
2 32711  54.4503 175.3135 0189420 239.9852 118.1581  2.00570645120999
GPS BIIRM-8 (PRN 05)    
1 35752U 09043A   24263.44408310 -.00000039  00000+0  00000+0 0  9990
2 35752  55.7536  52.5401 0056524  75.4782 294.7718  2.00563762110615
GPS BIIF-1  (PRN 25)    
1 36585U 10022A   24263.32889137  .00000021  00000+0  00000+0 0  9991
2 36585  54.4180 234.1989 0115712  62.0471 342.6845  2.00556154104841
GPS BIIF-3  (PRN 24)    
1 38833U 12053A   24263.13323920  .00000025  00000+0  00000+0 0  9991
2 38833  53.5178 169.6320 0157421  57.3864 304.1703  2.00559970 86689
GPS BIIF-4  (PRN 27)    
1 39166U 13023A   24263.49403441 -.00000019  00000+0  00000+0 0  9999
2 39166  55.0316 294.7768 0124340  44.9733 316.0844  2.00562400 83134
GPS BIIF-5  (PRN 30)    
1 39533U 14008A   24262.99144855  .00000022  00000+0  00000+0 0  9999
2 39533  53.5998 175.2486 0073180 221.1205 138.3611  2.00573764 77471
GPS BIIF-6  (PRN 06)    
1 39741U 14026A   24263.27302983 -.00000089  00000+0  00000+0 0  9994
2 39741  56.7013 356.2249 0032086 313.3534  46.4166  2.00561403 75785
GPS BIIF-7  (PRN 09)    
1 40105U 14045A   24262.86474538  .00000044  00000+0  00000+0 0  9991
2 40105  54.9714 113.8639 0029055 115.4593 244.9383  2.00572657 73313
GPS BIIF-8  (PRN 03)    
1 40294U 14068A   24263.23954585 -.00000031  00000+0  00000+0 0  9999
2 40294  56.5030  55.5753 0055147  65.4537 295.1271  2.00565705 72457
GPS BIIF-9  (PRN 26)    
1 40534U 15013A   24263.36932763  .00000019  00000+0  00000+0 0  9990
2 40534  53.3159 230.4943 0091093  30.5618 329.9311  2.00559788 69078
GPS BIIF-10 (PRN 08)    
1 40730U 15033A   24263.53113828 -.00000018  00000+0  00000+0 0  9992
2 40730  54.5140 293.2017 0095807  19.7723 340.6509  2.00562075 67262
GPS BIIF-11 (PRN 10)    
1 41019U 15062A   24263.09293679 -.00000030  00000+0  00000+0 0  9993
2 41019  56.4826  55.4351 0098462 224.6482 134.5644  2.00562538 65074
GPS BIIF-12 (PRN 32)    
1 41328U 16007A   24263.17428362  .00000042  00000+0  00000+0 0  9996
2 41328  55.1632 114.7150 0080484 238.4587 120.8469  2.00557236 63089
GPS BIII-1  (PRN 04)    
1 43873U 18109A   24263.06561260  .00000044  00000+0  00000+0 0  9993
2 43873  55.3332 117.3170 0030670 192.1214 340.5042  2.00559718 42319
GPS BIII-2  (PRN 18)    
1 44506U 19056A   24263.52467920 -.00000091  00000+0  00000+0 0  9991
2 44506  55.8340 356.3547 0047364 191.0701 218.6055  2.00556371 37323
GPS BIII-3  (PRN 23)    
1 45854U 20041A   24263.49749785 -.00000037  00000+0  00000+0 0  9992
2 45854  56.2040  53.7267 0047463 193.6961 131.6121  2.00571270 31287
GPS BIII-4  (PRN 14)    
1 46826U 20078A   24263.83306552  .00000022  00000+0  00000+0 0  9994
2 46826  54.1489 236.5625 0049637 198.8978 344.3196  2.00560187 28758
GPS BIII-5  (PRN 11)    
1 48859U 21054A   24263.48234234 -.00000092  00000+0  00000+0 0  9993
2 48859  55.3612 357.9644 0018538 221.0763 251.2536  2.00552131 24001
GPS BIII-6  (PRN 28)    
1 55268U 23009A   24263.54386965  .00000025  00000+0  00000+0 0  9998
2 55268  55.0848 173.4699 0001677  67.8426 133.8132  2.00557817 12493
